{"type": "FeatureCollection", "features": [ {"type": "Feature", "properties": {"norad_id": 66586, "name": "TJS-21", "group": "last-30-days", "lat": 60.33661387104761, "lon": -134.7284410437185, "alt_km": 35900.019761482035, "timestamp": "2025-12-06T09:34:15.699970+00:00", "meta": {"OBJECT_NAME": "TJS-21", "OBJECT_ID": "2025-269A", "EPOCH": "2025-12-05T05:53:45.339360", "MEAN_MOTION": 2.00559462, "ECCENTRICITY": 0.68051288, "INCLINATION": 63.2734, "RA_OF_ASC_NODE": 163.1383, "ARG_OF_PERICENTER": 269.8052, "MEAN_ANOMALY": 18.6619, "EPHEMERIS_TYPE": 0, "CLASSIFICATION_TYPE": "U", "NORAD_CAT_ID": 66586, "ELEMENT_SET_NO": 999, "REV_AT_EPOCH": 29, "BSTAR": -0.017798837, "MEAN_MOTION_DOT": 1.125e-05, "MEAN_MOTION_DDOT": 0}, "tle": {"line1": "1 66586U 25269A   25339.24566365  .00001125  00000+0 -17799-1 0  9997", "line2": "2 66586  63.2734 163.1383 6805128 269.8052  18.6619  2.00559462   290"}}, "geometry": {"type": "Point", "coordinates": [-134.7284410437185, 60.33661387104761]}}, {"type": "Feature", "properties": {"norad_id": 66587, "name": "CZ-3B R/B", "group": "last-30-days", "lat": 7.636947009309124, "lon": 177.21063077201416, "alt_km": 21871.875515913238, "timestamp": "2025-12-06T09:34:15.699985+00:00", "meta": {"OBJECT_NAME": "CZ-3B R/B", "OBJECT_ID": "2025-269B", "EPOCH": "2025-12-02T10:16:46.437600", "MEAN_MOTION": 2.0223182, "ECCENTRICITY": 0.75203475, "INCLINATION": 51.3575, "RA_OF_ASC_NODE": 172.0321, "ARG_OF_PERICENTER": 226.8728, "MEAN_ANOMALY": 39.3228, "EPHEMERIS_TYPE": 0, "CLASSIFICATION_TYPE": "U", "NORAD_CAT_ID": 66587, "ELEMENT_SET_NO": 999, "REV_AT_EPOCH": 24, "BSTAR": 0.0019543247, "MEAN_MOTION_DOT": 0.00047329, "MEAN_MOTION_DDOT": -2.45602e-07}, "tle": {"line1": "1 66587U 25269B   25336.42831525  .00047329 -24560-6  19543-2 0  9998", "line2": "2 66587  51.3575 172.0321 7520347 226.8728  39.3228  2.02231820   242"}}, "geometry": {"type": "Point", "coordinates": [177.21063077201416, 7.636947009309124]}}, {"type": "Feature", "properties": {"norad_id": 66588, "name": "STARLINK-36076", "group": "last-30-days", "lat": 42.53291738749351, "lon": -49.90529683955204, "alt_km": 355.4781803256228, "timestamp": "2025-12-06T09:34:15.699998+00:00", "meta": {"OBJECT_NAME": "STARLINK-36076", "OBJECT_ID": "2025-270A", "EPOCH": "2025-12-05T22:00:03.000096", "MEAN_MOTION": 15.712837, "ECCENTRICITY": 0.0001324, "INCLINATION": 42.9985, "RA_OF_ASC_NODE": 233.0855, "ARG_OF_PERICENTER": 258.6094, "MEAN_ANOMALY": 335.4299, "EPHEMERIS_TYPE": 0, "CLASSIFICATION_TYPE": "U", "NORAD_CAT_ID": 66588, "ELEMENT_SET_NO": 999, "REV_AT_EPOCH": 330, "BSTAR": -0.016733547, "MEAN_MOTION_DOT": -0.01937829, "MEAN_MOTION_DDOT": 0}, "tle": {"line1": "1 66588U 25270A   25339.91670139 -.01937829  00000+0 -16734-1 0  9999", "line2": "2 66588  42.9985 233.0855 0001324 258.6094 335.4299 15.71283700  3307"}}, "geometry": {"type": "Point", "coordinates": [-49.90529683955204, 42.53291738749351]}}, {"type": "Feature", "properties": {"norad_id": 66589, "name": "STARLINK-35447", "group": "last-30-days", "lat": 42.87380456183214, "lon": -44.71516211958254, "alt_km": 355.48974269542396, "timestamp": "2025-12-06T09:34:15.700008+00:00", "meta": {"OBJECT_NAME": "STARLINK-35447", "OBJECT_ID": "2025-270B", "EPOCH": "2025-12-05T22:00:03.000096", "MEAN_MOTION": 15.71284695, "ECCENTRICITY": 0.00014279, "INCLINATION": 42.9986, "RA_OF_ASC_NODE": 233.0757, "ARG_OF_PERICENTER": 255.4697, "MEAN_ANOMALY": 342.4026, "EPHEMERIS_TYPE": 0, "CLASSIFICATION_TYPE": "U", "NORAD_CAT_ID": 66589, "ELEMENT_SET_NO": 999, "REV_AT_EPOCH": 341, "BSTAR": -0.01674502, "MEAN_MOTION_DOT": -0.01939158, "MEAN_MOTION_DDOT": 0}, "tle": {"line1": "1 66589U 25270B   25339.91670139 -.01939158  00000+0 -16745-1 0  9999", "line2": "2 66589  42.9986 233.0757 0001427 255.4697 342.4026 15.71284695  3410"}}, "geometry": {"type": "Point", "coordinates": [-44.71516211958254, 42.87380456183214]}}, {"type": "Feature", "properties": {"norad_id": 66590, "name": "STARLINK-35429", "group": "last-30-days", "lat": 42.73245087475582, "lon": -47.32294524827933, "alt_km": 355.4529970320964, "timestamp": "2025-12-06T09:34:15.700019+00:00", "meta": {"OBJECT_NAME": "STARLINK-35429", "OBJECT_ID": "2025-270C", "EPOCH": "2025-12-05T22:00:03.000096", "MEAN_MOTION": 15.7127804, "ECCENTRICITY": 0.00011927, "INCLINATION": 42.9986, "RA_OF_ASC_NODE": 233.0806, "ARG_OF_PERICENTER": 251.6761, "MEAN_ANOMALY": 344.3158, "EPHEMERIS_TYPE": 0, "CLASSIFICATION_TYPE": "U", "NORAD_CAT_ID": 66590, "ELEMENT_SET_NO": 999, "REV_AT_EPOCH": 341, "BSTAR": -0.017011563, "MEAN_MOTION_DOT": -0.01965748, "MEAN_MOTION_DDOT": 0}, "tle": {"line1": "1 66590U 25270C   25339.91670139 -.01965748  00000+0 -17012-1 0  9993", "line2": "2 66590  42.9986 233.0806 0001192 251.6761 344.3158 15.71278040  3410"}}, "geometry": {"type": "Point", "coordinates": [-47.32294524827933, 42.73245087475582]}}, {"type": "Feature", "properties": {"norad_id": 66591, "name": "STARLINK-36058", "group": "last-30-days", "lat": 42.955365744979005, "lon": -42.100056593537, "alt_km": 355.4841284604727, "timestamp": "2025-12-06T09:34:15.700031+00:00", "meta": {"OBJECT_NAME": "STARLINK-36058", "OBJECT_ID": "2025-270D", "EPOCH": "2025-12-05T22:00:03.000096", "MEAN_MOTION": 15.71284217, "ECCENTRICITY": 0.00014161, "INCLINATION": 42.9985, "RA_OF_ASC_NODE": 233.0711, "ARG_OF_PERICENTER": 258.18, "MEAN_ANOMALY": 341.6132, "EPHEMERIS_TYPE": 0, "CLASSIFICATION_TYPE": "U", "NORAD_CAT_ID": 66591, "ELEMENT_SET_NO": 999, "REV_AT_EPOCH": 330, "BSTAR": -0.01677465, "MEAN_MOTION_DOT": -0.01942151, "MEAN_MOTION_DDOT": 0}, "tle": {"line1": "1 66591U 25270D   25339.91670139 -.01942151  00000+0 -16775-1 0  9992", "line2": "2 66591  42.9985 233.0711 0001416 258.1800 341.6132 15.71284217  3303"}}, "geometry": {"type": "Point", "coordinates": [-42.100056593537, 42.955365744979005]}}, {"type": "Feature", "properties": {"norad_id": 66592, "name": "STARLINK-36066", "group": "last-30-days", "lat": 42.97717585505739, "lon": -39.48244042283988, "alt_km": 355.4734556877547, "timestamp": "2025-12-06T09:34:15.700069+00:00", "meta": {"OBJECT_NAME": "STARLINK-36066", "OBJECT_ID": "2025-270E", "EPOCH": "2025-12-05T22:00:03.000096", "MEAN_MOTION": 15.71281876, "ECCENTRICITY": 0.00014335, "INCLINATION": 42.9985, "RA_OF_ASC_NODE": 233.0663, "ARG_OF_PERICENTER": 258.0042, "MEAN_ANOMALY": 343.7045, "EPHEMERIS_TYPE": 0, "CLASSIFICATION_TYPE": "U", "NORAD_CAT_ID": 66592, "ELEMENT_SET_NO": 999, "REV_AT_EPOCH": 320, "BSTAR": -0.016720939, "MEAN_MOTION_DOT": -0.01936488, "MEAN_MOTION_DDOT": 0}, "tle": {"line1": "1 66592U 25270E   25339.91670139 -.01936488  00000+0 -16721-1 0  9990", "line2": "2 66592  42.9985 233.0663 0001433 258.0042 343.7045 15.71281876  3209"}}, "geometry": {"type": "Point", "coordinates": [-39.48244042283988, 42.97717585505739]}}, {"type": "Feature", "properties": {"norad_id": 66593, "name": "STARLINK-36031", "group": "last-30-days", "lat": 42.93920913093817, "lon": -36.86533984037299, "alt_km": 355.482319532176, "timestamp": "2025-12-06T09:34:15.700091+00:00", "meta": {"OBJECT_NAME": "STARLINK-36031", "OBJECT_ID": "2025-270F", "EPOCH": "2025-12-05T22:00:03.000096", "MEAN_MOTION": 15.71285381, "ECCENTRICITY": 0.00014341, "INCLINATION": 42.9986, "RA_OF_ASC_NODE": 233.0613, "ARG_OF_PERICENTER": 259.3676, "MEAN_ANOMALY": 344.2558, "EPHEMERIS_TYPE": 0, "CLASSIFICATION_TYPE": "U", "NORAD_CAT_ID": 66593, "ELEMENT_SET_NO": 999, "REV_AT_EPOCH": 330, "BSTAR": -0.016758273, "MEAN_MOTION_DOT": -0.01940571, "MEAN_MOTION_DDOT": 0}, "tle": {"line1": "1 66593U 25270F   25339.91670139 -.01940571  00000+0 -16758-1 0  9999", "line2": "2 66593  42.9986 233.0613 0001434 259.3676 344.2558 15.71285381  3305"}}, "geometry": {"type": "Point", "coordinates": [-36.86533984037299, 42.93920913093817]}}, {"type": "Feature", "properties": {"norad_id": 66594, "name": "STARLINK-36032", "group": "last-30-days", "lat": 42.8413534885524, "lon": -34.25643068086019, "alt_km": 355.4371652050286, "timestamp": "2025-12-06T09:34:15.700103+00:00", "meta": {"OBJECT_NAME": "STARLINK-36032", "OBJECT_ID": "2025-270G", "EPOCH": "2025-12-05T22:00:03.000096", "MEAN_MOTION": 15.71280491, "ECCENTRICITY": 0.00014242, "INCLINATION": 42.9984, "RA_OF_ASC_NODE": 233.0568, "ARG_OF_PERICENTER": 253.92, "MEAN_ANOMALY": 351.622, "EPHEMERIS_TYPE": 0, "CLASSIFICATION_TYPE": "U", "NORAD_CAT_ID": 66594, "ELEMENT_SET_NO": 999, "REV_AT_EPOCH": 304, "BSTAR": -0.016688961, "MEAN_MOTION_DOT": -0.019331, "MEAN_MOTION_DDOT": 0}, "tle": {"line1": "1 66594U 25270G   25339.91670139 -.01933100  00000+0 -16689-1 0  9993", "line2": "2 66594  42.9984 233.0568 0001424 253.9200 351.6220 15.71280491  3041"}}, "geometry": {"type": "Point", "coordinates": [-34.25643068086019, 42.8413534885524]}}, {"type": "Feature", "properties": {"norad_id": 66595, "name": "STARLINK-35711", "group": "last-30-days", "lat": 42.684196413346676, "lon": -31.653863130720268, "alt_km": 355.4963736722202, "timestamp": "2025-12-06T09:34:15.700114+00:00", "meta": {"OBJECT_NAME": "STARLINK-35711", "OBJECT_ID": "2025-270H", "EPOCH": "2025-12-05T22:00:03.000096", "MEAN_MOTION": 15.71287518, "ECCENTRICITY": 0.00014183, "INCLINATION": 42.9985, "RA_OF_ASC_NODE": 233.0512, "ARG_OF_PERICENTER": 259.5539, "MEAN_ANOMALY": 347.9023, "EPHEMERIS_TYPE": 0, "CLASSIFICATION_TYPE": "U", "NORAD_CAT_ID": 66595, "ELEMENT_SET_NO": 999, "REV_AT_EPOCH": 341, "BSTAR": -0.016778059, "MEAN_MOTION_DOT": -0.01942743, "MEAN_MOTION_DDOT": 0}, "tle": {"line1": "1 66595U 25270H   25339.91670139 -.01942743  00000+0 -16778-1 0  9996", "line2": "2 66595  42.9985 233.0512 0001418 259.5539 347.9023 15.71287518  3419"}}, "geometry": {"type": "Point", "coordinates": [-31.653863130720268, 42.684196413346676]}}]}